{
  "type": "FeatureCollection",
  "features": [
    {
      "type": "Feature",
      "properties": {
        "norad_id": 35476,
        "name": "COSMOS 2251 DEB",
        "group": "cosmos-2251-debris",
        "lat": -59.14493222803531,
        "lon": -80.26293581462303,
        "alt_km": 662.3840900210871,
        "timestamp": "2025-12-07T14:37:05.599795+00:00",
        "meta_object_name": "COSMOS 2251 DEB",
        "meta_object_id": "1993-036ALW",
        "meta_epoch": "2025-12-06T13:10:44.340384",
        "meta_mean_motion": 14.75466817,
        "meta_eccentricity": 0.00173611,
        "meta_inclination": 73.9786,
        "meta_ra_of_asc_node": 73.0677,
        "meta_arg_of_pericenter": 58.1179,
        "meta_mean_anomaly": 317.1673,
        "meta_ephemeris_type": 0,
        "meta_classification_type": "U",
        "meta_norad_cat_id": 35476,
        "meta_element_set_no": 999,
        "meta_rev_at_epoch": 87796,
        "meta_bstar": 0.0031373625,
        "meta_mean_motion_dot": 0.00021426,
        "meta_mean_motion_ddot": 0,
        "tle_line1": "1 35476U 93036ALW 25340.54912431  .00021426  00000+0  31374-2 0  9993",
        "tle_line2": "2 35476  73.9786  73.0677 0017361  58.1179 317.1673 14.75466817877960"
      },
      "geometry": {
        "type": "Point",
        "coordinates": [
          -80.26293581462303,
          -59.14493222803531
        ]
      }
    },
    {
      "type": "Feature",
      "properties": {
        "norad_id": 35580,
        "name": "COSMOS 2251 DEB",
        "group": "cosmos-2251-debris",
        "lat": -54.58761167117761,
        "lon": 31.41341636156755,
        "alt_km": 806.2932150083288,
        "timestamp": "2025-12-07T14:37:05.599805+00:00",
        "meta_object_name": "COSMOS 2251 DEB",
        "meta_object_id": "1993-036ALX",
        "meta_epoch": "2025-12-06T21:51:49.269024",
        "meta_mean_motion": 13.83821036,
        "meta_eccentricity": 0.02818687,
        "meta_inclination": 73.9,
        "meta_ra_of_asc_node": 188.633,
        "meta_arg_of_pericenter": 195.0077,
        "meta_mean_anomaly": 164.256,
        "meta_ephemeris_type": 0,
        "meta_classification_type": "U",
        "meta_norad_cat_id": 35580,
        "meta_element_set_no": 999,
        "meta_rev_at_epoch": 62176,
        "meta_bstar": 0.0026984958,
        "meta_mean_motion_dot": 4.042e-05,
        "meta_mean_motion_ddot": 0,
        "tle_line1": "1 35580U 93036ALX 25340.91098691  .00004042  00000+0  26985-2 0  9990",
        "tle_line2": "2 35580  73.9000 188.6330 0281868 195.0077 164.2560 13.83821036621764"
      },
      "geometry": {
        "type": "Point",
        "coordinates": [
          31.41341636156755,
          -54.58761167117761
        ]
      }
    },
    {
      "type": "Feature",
      "properties": {
        "norad_id": 35583,
        "name": "COSMOS 2251 DEB",
        "group": "cosmos-2251-debris",
        "lat": 72.94599017921483,
        "lon": -29.787490621762274,
        "alt_km": 1290.5287771257772,
        "timestamp": "2025-12-07T14:37:05.599815+00:00",
        "meta_object_name": "COSMOS 2251 DEB",
        "meta_object_id": "1993-036AMA",
        "meta_epoch": "2025-12-06T09:46:22.855872",
        "meta_mean_motion": 13.55320522,
        "meta_eccentricity": 0.03857217,
        "meta_inclination": 73.9174,
        "meta_ra_of_asc_node": 222.2787,
        "meta_arg_of_pericenter": 247.7895,
        "meta_mean_anomaly": 108.1877,
        "meta_ephemeris_type": 0,
        "meta_classification_type": "U",
        "meta_norad_cat_id": 35583,
        "meta_element_set_no": 999,
        "meta_rev_at_epoch": 82326,
        "meta_bstar": 0.00085653022,
        "meta_mean_motion_dot": 9.31e-06,
        "meta_mean_motion_ddot": 0,
        "tle_line1": "1 35583U 93036AMA 25340.40720898  .00000931  00000+0  85653-3 0  9999",
        "tle_line2": "2 35583  73.9174 222.2787 0385721 247.7895 108.1877 13.55320522823266"
      },
      "geometry": {
        "type": "Point",
        "coordinates": [
          -29.787490621762274,
          72.94599017921483
        ]
      }
    },
    {
      "type": "Feature",
      "properties": {
        "norad_id": 35585,
        "name": "COSMOS 2251 DEB",
        "group": "cosmos-2251-debris",
        "lat": 45.282789561220255,
        "lon": 13.85792971791554,
        "alt_km": 1141.9016915392986,
        "timestamp": "2025-12-07T14:37:05.599825+00:00",
        "meta_object_name": "COSMOS 2251 DEB",
        "meta_object_id": "1993-036AMC",
        "meta_epoch": "2025-12-04T07:54:11.347200",
        "meta_mean_motion": 13.75209322,
        "meta_eccentricity": 0.0310609,
        "meta_inclination": 73.9717,
        "meta_ra_of_asc_node": 2.4547,
        "meta_arg_of_pericenter": 276.3473,
        "meta_mean_anomaly": 97.5406,
        "meta_ephemeris_type": 0,
        "meta_classification_type": "U",
        "meta_norad_cat_id": 35585,
        "meta_element_set_no": 999,
        "meta_rev_at_epoch": 63948,
        "meta_bstar": 0.0020064,
        "meta_mean_motion_dot": 2.707e-05,
        "meta_mean_motion_ddot": 0,
        "tle_line1": "1 35585U 93036AMC 25338.32929800  .00002707  00000+0  20064-2 0  9990",
        "tle_line2": "2 35585  73.9717   2.4547 0310609 276.3473  97.5406 13.75209322639480"
      },
      "geometry": {
        "type": "Point",
        "coordinates": [
          13.85792971791554,
          45.282789561220255
        ]
      }
    },
    {
      "type": "Feature",
      "properties": {
        "norad_id": 35586,
        "name": "COSMOS 2251 DEB",
        "group": "cosmos-2251-debris",
        "lat": -51.69836279908988,
        "lon": -70.57108075187121,
        "alt_km": 1204.1202069140836,
        "timestamp": "2025-12-07T14:37:05.599848+00:00",
        "meta_object_name": "COSMOS 2251 DEB",
        "meta_object_id": "1993-036AMD",
        "meta_epoch": "2025-12-02T16:49:03.133344",
        "meta_mean_motion": 13.52074918,
        "meta_eccentricity": 0.04051153,
        "meta_inclination": 74.0205,
        "meta_ra_of_asc_node": 318.5607,
        "meta_arg_of_pericenter": 196.0051,
        "meta_mean_anomaly": 342.734,
        "meta_ephemeris_type": 0,
        "meta_classification_type": "U",
        "meta_norad_cat_id": 35586,
        "meta_element_set_no": 999,
        "meta_rev_at_epoch": 60246,
        "meta_bstar": 0.00045411914,
        "meta_mean_motion_dot": 4.79e-06,
        "meta_mean_motion_ddot": 0,
        "tle_line1": "1 35586U 93036AMD 25336.70073071  .00000479  00000+0  45412-3 0  9990",
        "tle_line2": "2 35586  74.0205 318.5607 0405115 196.0051 342.7340 13.52074918602466"
      },
      "geometry": {
        "type": "Point",
        "coordinates": [
          -70.57108075187121,
          -51.69836279908988
        ]
      }
    },
    {
      "type": "Feature",
      "properties": {
        "norad_id": 35587,
        "name": "COSMOS 2251 DEB",
        "group": "cosmos-2251-debris",
        "lat": 51.96408274664059,
        "lon": -133.08711384678216,
        "alt_km": 699.4646667968582,
        "timestamp": "2025-12-07T14:37:05.599860+00:00",
        "meta_object_name": "COSMOS 2251 DEB",
        "meta_object_id": "1993-036AME",
        "meta_epoch": "2025-12-05T13:05:34.214496",
        "meta_mean_motion": 14.71476804,
        "meta_eccentricity": 0.01029789,
        "meta_inclination": 74.0063,
        "meta_ra_of_asc_node": 72.4378,
        "meta_arg_of_pericenter": 261.7398,
        "meta_mean_anomaly": 97.2085,
        "meta_ephemeris_type": 0,
        "meta_classification_type": "U",
        "meta_norad_cat_id": 35587,
        "meta_element_set_no": 999,
        "meta_rev_at_epoch": 66240,
        "meta_bstar": 0.0005712228,
        "meta_mean_motion_dot": 3.815e-05,
        "meta_mean_motion_ddot": 0,
        "tle_line1": "1 35587U 93036AME 25339.54553489  .00003815  00000+0  57122-3 0  9990",
        "tle_line2": "2 35587  74.0063  72.4378 0102978 261.7398  97.2085 14.71476804662405"
      },
      "geometry": {
        "type": "Point",
        "coordinates": [
          -133.08711384678216,
          51.96408274664059
        ]
      }
    },
    {
      "type": "Feature",
      "properties": {
        "norad_id": 35593,
        "name": "COSMOS 2251 DEB",
        "group": "cosmos-2251-debris",
        "lat": 25.106002096535818,
        "lon": -54.63284167549252,
        "alt_km": 792.8559304885875,
        "timestamp": "2025-12-07T14:37:05.599870+00:00",
        "meta_object_name": "COSMOS 2251 DEB",
        "meta_object_id": "1993-036AML",
        "meta_epoch": "2025-12-06T06:29:47.973696",
        "meta_mean_motion": 14.25548393,
        "meta_eccentricity": 0.01053072,
        "meta_inclination": 74.0859,
        "meta_ra_of_asc_node": 300.0924,
        "meta_arg_of_pericenter": 308.0252,
        "meta_mean_anomaly": 51.1424,
        "meta_ephemeris_type": 0,
        "meta_classification_type": "U",
        "meta_norad_cat_id": 35593,
        "meta_element_set_no": 999,
        "meta_rev_at_epoch": 84973,
        "meta_bstar": 0.0026306785,
        "meta_mean_motion_dot": 6.575e-05,
        "meta_mean_motion_ddot": 0,
        "tle_line1": "1 35593U 93036AML 25340.27069414  .00006575  00000+0  26307-2 0  9995",
        "tle_line2": "2 35593  74.0859 300.0924 0105307 308.0252  51.1424 14.25548393849736"
      },
      "geometry": {
        "type": "Point",
        "coordinates": [
          -54.63284167549252,
          25.106002096535818
        ]
      }
    }
  ]
}